STARLINK-36364          
1 67978U 26038T   26065.25002315 -.01587690  78073-3 -29795-2 0  9993
2 67978  97.2721  75.2832 0001233  89.8677  83.9321 16.01023375  2644
STARLINK-36359          
1 67979U 26038U   26065.25002315 -.01581409  76945-3 -30755-2 0  9990
2 67979  97.2728  75.2773 0001221  85.7653  74.8418 16.00396611  2643
STARLINK-36882          
1 67980U 26038V   26065.25002315 -.01594584  78569-3 -30186-2 0  9992
2 67980  97.2723  75.2819 0001211  92.9466  77.5794 16.00871964  2648
STARLINK-36874          
1 67981U 26038W   26065.25002315 -.01571144  76654-3 -29309-2 0  9998
2 67981  97.2721  75.2843 0001357  78.8049  97.4121 16.01125311  2649
STARLINK-36879          
1 67982U 26038X   26065.25002315 -.01570816  76746-3 -29072-2 0  9993
2 67982  97.2719  75.2855 0001281  77.5576 101.5973 16.01262989  2642
STARLINK-36867          
1 67983U 26038Y   26065.25002315 -.01562340  76220-3 -28458-2 0  9991
2 67983  97.2716  75.2884 0001309  73.5870 111.5404 16.01539339  2642
STARLINK-36266          
1 67984U 26038Z   26065.25002315 -.01564796  76333-3 -28708-2 0  9992
2 67984  97.2718  75.2871 0001299  78.6626 103.7685 16.01415046  2613
STARLINK-36802          
1 67985U 26038AA  26065.25002315 -.01561825  76273-3 -28263-2 0  9992
2 67985  97.2715  75.2892 0001218  85.0000 102.5989 16.01653069  2649
STARLINK-36535          
1 67986U 26039A   26065.25002315 -.01532467  67544-3 -39486-2 0  9994
2 67986  42.9976  76.2405 0001456 273.6332 230.1490 15.94353029  2328
STARLINK-36744          
1 67987U 26039B   26065.25002315 -.01519678  66600-3 -38876-2 0  9998
2 67987  42.9975  76.2356 0001522 269.8627 235.7357 15.94485347  2323
STARLINK-36734          
1 67988U 26039C   26065.25002315 -.01514119  66251-3 -38426-2 0  9997
2 67988  42.9976  76.2300 0001427 271.3120 236.4944 15.94633420  2321
STARLINK-36957          
1 67989U 26039D   26065.25002315 -.01512925  66250-3 -38100-2 0  9999
2 67989  42.9975  76.2251 0001540 273.9377 235.6671 15.94776658  2323
STARLINK-36951          
1 67990U 26039E   26065.25002315 -.01510073  66118-3 -37729-2 0  9992
2 67990  42.9975  76.2197 0001575 269.6056 242.1515 15.94922713  2323
STARLINK-36941          
1 67991U 26039F   26065.25002315 -.01496409  65109-3 -37119-2 0  9991
2 67991  42.9975  76.2154 0001483 269.3353 244.0389 15.95054734  2322
STARLINK-36950          
1 67992U 26039G   26065.25002315 -.01494123  65020-3 -36776-2 0  9993
2 67992  42.9976  76.2104 0001520 270.9681 244.4672 15.95198076  2320
STARLINK-36975          
1 67993U 26039H   26065.25002315 -.01487766  64603-3 -36345-2 0  9997
2 67993  42.9975  76.2054 0001522 273.4891 243.8765 15.95336222  2320
