[{"OBJECT_NAME":"STARLINK-36364","OBJECT_ID":"2026-038T","EPOCH":"2026-03-06T06:00:02.000160","MEAN_MOTION":16.01023375,"ECCENTRICITY":0.0001233,"INCLINATION":97.2721,"RA_OF_ASC_NODE":75.2832,"ARG_OF_PERICENTER":89.8677,"MEAN_ANOMALY":83.9321,"EPHEMERIS_TYPE":0,"CLASSIFICATION_TYPE":"U","NORAD_CAT_ID":67978,"ELEMENT_SET_NO":999,"REV_AT_EPOCH":264,"BSTAR":-0.0029794993,"MEAN_MOTION_DOT":-0.0158769,"MEAN_MOTION_DDOT":0.00078072963},{"OBJECT_NAME":"STARLINK-36359","OBJECT_ID":"2026-038U","EPOCH":"2026-03-06T06:00:02.000160","MEAN_MOTION":16.00396611,"ECCENTRICITY":0.00012217,"INCLINATION":97.2728,"RA_OF_ASC_NODE":75.2773,"ARG_OF_PERICENTER":85.7653,"MEAN_ANOMALY":74.8418,"EPHEMERIS_TYPE":0,"CLASSIFICATION_TYPE":"U","NORAD_CAT_ID":67979,"ELEMENT_SET_NO":999,"REV_AT_EPOCH":264,"BSTAR":-0.0030754929,"MEAN_MOTION_DOT":-0.01581409,"MEAN_MOTION_DDOT":0.00076945188},{"OBJECT_NAME":"STARLINK-36882","OBJECT_ID":"2026-038V","EPOCH":"2026-03-06T06:00:02.000160","MEAN_MOTION":16.00871964,"ECCENTRICITY":0.00012113,"INCLINATION":97.2723,"RA_OF_ASC_NODE":75.2819,"ARG_OF_PERICENTER":92.9466,"MEAN_ANOMALY":77.5794,"EPHEMERIS_TYPE":0,"CLASSIFICATION_TYPE":"U","NORAD_CAT_ID":67980,"ELEMENT_SET_NO":999,"REV_AT_EPOCH":264,"BSTAR":-0.0030186154,"MEAN_MOTION_DOT":-0.01594584,"MEAN_MOTION_DDOT":0.00078568976},{"OBJECT_NAME":"STARLINK-36874","OBJECT_ID":"2026-038W","EPOCH":"2026-03-06T06:00:02.000160","MEAN_MOTION":16.01125311,"ECCENTRICITY":0.0001357,"INCLINATION":97.2721,"RA_OF_ASC_NODE":75.2843,"ARG_OF_PERICENTER":78.8049,"MEAN_ANOMALY":97.4121,"EPHEMERIS_TYPE":0,"CLASSIFICATION_TYPE":"U","NORAD_CAT_ID":67981,"ELEMENT_SET_NO":999,"REV_AT_EPOCH":264,"BSTAR":-0.002930865,"MEAN_MOTION_DOT":-0.01571144,"MEAN_MOTION_DDOT":0.00076654279},{"OBJECT_NAME":"STARLINK-36879","OBJECT_ID":"2026-038X","EPOCH":"2026-03-06T06:00:02.000160","MEAN_MOTION":16.01262989,"ECCENTRICITY":0.00012817,"INCLINATION":97.2719,"RA_OF_ASC_NODE":75.2855,"ARG_OF_PERICENTER":77.5576,"MEAN_ANOMALY":101.5973,"EPHEMERIS_TYPE":0,"CLASSIFICATION_TYPE":"U","NORAD_CAT_ID":67982,"ELEMENT_SET_NO":999,"REV_AT_EPOCH":264,"BSTAR":-0.0029072361,"MEAN_MOTION_DOT":-0.01570816,"MEAN_MOTION_DDOT":0.00076746082},{"OBJECT_NAME":"STARLINK-36867","OBJECT_ID":"2026-038Y","EPOCH":"2026-03-06T06:00:02.000160","MEAN_MOTION":16.01539339,"ECCENTRICITY":0.00013091,"INCLINATION":97.2716,"RA_OF_ASC_NODE":75.2884,"ARG_OF_PERICENTER":73.587,"MEAN_ANOMALY":111.5404,"EPHEMERIS_TYPE":0,"CLASSIFICATION_TYPE":"U","NORAD_CAT_ID":67983,"ELEMENT_SET_NO":999,"REV_AT_EPOCH":264,"BSTAR":-0.0028457685,"MEAN_MOTION_DOT":-0.0156234,"MEAN_MOTION_DDOT":0.00076219682},{"OBJECT_NAME":"STARLINK-36266","OBJECT_ID":"2026-038Z","EPOCH":"2026-03-06T06:00:02.000160","MEAN_MOTION":16.01415046,"ECCENTRICITY":0.00012993,"INCLINATION":97.2718,"RA_OF_ASC_NODE":75.2871,"ARG_OF_PERICENTER":78.6626,"MEAN_ANOMALY":103.7685,"EPHEMERIS_TYPE":0,"CLASSIFICATION_TYPE":"U","NORAD_CAT_ID":67984,"ELEMENT_SET_NO":999,"REV_AT_EPOCH":261,"BSTAR":-0.0028707643,"MEAN_MOTION_DOT":-0.01564796,"MEAN_MOTION_DDOT":0.00076333053},{"OBJECT_NAME":"STARLINK-36802","OBJECT_ID":"2026-038AA","EPOCH":"2026-03-06T06:00:02.000160","MEAN_MOTION":16.01653069,"ECCENTRICITY":0.00012184,"INCLINATION":97.2715,"RA_OF_ASC_NODE":75.2892,"ARG_OF_PERICENTER":85,"MEAN_ANOMALY":102.5989,"EPHEMERIS_TYPE":0,"CLASSIFICATION_TYPE":"U","NORAD_CAT_ID":67985,"ELEMENT_SET_NO":999,"REV_AT_EPOCH":264,"BSTAR":-0.0028262697,"MEAN_MOTION_DOT":-0.01561825,"MEAN_MOTION_DDOT":0.00076273001},{"OBJECT_NAME":"STARLINK-36535","OBJECT_ID":"2026-039A","EPOCH":"2026-03-06T06:00:02.000160","MEAN_MOTION":15.94353029,"ECCENTRICITY":0.00014567,"INCLINATION":42.9976,"RA_OF_ASC_NODE":76.2405,"ARG_OF_PERICENTER":273.6332,"MEAN_ANOMALY":230.149,"EPHEMERIS_TYPE":0,"CLASSIFICATION_TYPE":"U","NORAD_CAT_ID":67986,"ELEMENT_SET_NO":999,"REV_AT_EPOCH":232,"BSTAR":-0.0039485965,"MEAN_MOTION_DOT":-0.01532467,"MEAN_MOTION_DDOT":0.00067544335},{"OBJECT_NAME":"STARLINK-36744","OBJECT_ID":"2026-039B","EPOCH":"2026-03-06T06:00:02.000160","MEAN_MOTION":15.94485347,"ECCENTRICITY":0.00015228,"INCLINATION":42.9975,"RA_OF_ASC_NODE":76.2356,"ARG_OF_PERICENTER":269.8627,"MEAN_ANOMALY":235.7357,"EPHEMERIS_TYPE":0,"CLASSIFICATION_TYPE":"U","NORAD_CAT_ID":67987,"ELEMENT_SET_NO":999,"REV_AT_EPOCH":232,"BSTAR":-0.003887554,"MEAN_MOTION_DOT":-0.01519678,"MEAN_MOTION_DDOT":0.00066599909},{"OBJECT_NAME":"STARLINK-36734","OBJECT_ID":"2026-039C","EPOCH":"2026-03-06T06:00:02.000160","MEAN_MOTION":15.9463342,"ECCENTRICITY":0.00014273,"INCLINATION":42.9976,"RA_OF_ASC_NODE":76.23,"ARG_OF_PERICENTER":271.312,"MEAN_ANOMALY":236.4944,"EPHEMERIS_TYPE":0,"CLASSIFICATION_TYPE":"U","NORAD_CAT_ID":67988,"ELEMENT_SET_NO":999,"REV_AT_EPOCH":232,"BSTAR":-0.003842575,"MEAN_MOTION_DOT":-0.01514119,"MEAN_MOTION_DDOT":0.00066250943},{"OBJECT_NAME":"STARLINK-36957","OBJECT_ID":"2026-039D","EPOCH":"2026-03-06T06:00:02.000160","MEAN_MOTION":15.94776658,"ECCENTRICITY":0.00015405,"INCLINATION":42.9975,"RA_OF_ASC_NODE":76.2251,"ARG_OF_PERICENTER":273.9377,"MEAN_ANOMALY":235.6671,"EPHEMERIS_TYPE":0,"CLASSIFICATION_TYPE":"U","NORAD_CAT_ID":67989,"ELEMENT_SET_NO":999,"REV_AT_EPOCH":232,"BSTAR":-0.0038100092,"MEAN_MOTION_DOT":-0.01512925,"MEAN_MOTION_DDOT":0.00066250008},{"OBJECT_NAME":"STARLINK-36951","OBJECT_ID":"2026-039E","EPOCH":"2026-03-06T06:00:02.000160","MEAN_MOTION":15.94922713,"ECCENTRICITY":0.00015755,"INCLINATION":42.9975,"RA_OF_ASC_NODE":76.2197,"ARG_OF_PERICENTER":269.6056,"MEAN_ANOMALY":242.1515,"EPHEMERIS_TYPE":0,"CLASSIFICATION_TYPE":"U","NORAD_CAT_ID":67990,"ELEMENT_SET_NO":999,"REV_AT_EPOCH":232,"BSTAR":-0.0037729418,"MEAN_MOTION_DOT":-0.01510073,"MEAN_MOTION_DDOT":0.00066117726},{"OBJECT_NAME":"STARLINK-36941","OBJECT_ID":"2026-039F","EPOCH":"2026-03-06T06:00:02.000160","MEAN_MOTION":15.95054734,"ECCENTRICITY":0.00014837,"INCLINATION":42.9975,"RA_OF_ASC_NODE":76.2154,"ARG_OF_PERICENTER":269.3353,"MEAN_ANOMALY":244.0389,"EPHEMERIS_TYPE":0,"CLASSIFICATION_TYPE":"U","NORAD_CAT_ID":67991,"ELEMENT_SET_NO":999,"REV_AT_EPOCH":232,"BSTAR":-0.0037119206,"MEAN_MOTION_DOT":-0.01496409,"MEAN_MOTION_DDOT":0.0006510913},{"OBJECT_NAME":"STARLINK-36950","OBJECT_ID":"2026-039G","EPOCH":"2026-03-06T06:00:02.000160","MEAN_MOTION":15.95198076,"ECCENTRICITY":0.00015201,"INCLINATION":42.9976,"RA_OF_ASC_NODE":76.2104,"ARG_OF_PERICENTER":270.9681,"MEAN_ANOMALY":244.4672,"EPHEMERIS_TYPE":0,"CLASSIFICATION_TYPE":"U","NORAD_CAT_ID":67992,"ELEMENT_SET_NO":999,"REV_AT_EPOCH":232,"BSTAR":-0.0036775833,"MEAN_MOTION_DOT":-0.01494123,"MEAN_MOTION_DDOT":0.00065020369},{"OBJECT_NAME":"STARLINK-36975","OBJECT_ID":"2026-039H","EPOCH":"2026-03-06T06:00:02.000160","MEAN_MOTION":15.95336222,"ECCENTRICITY":0.00015225,"INCLINATION":42.9975,"RA_OF_ASC_NODE":76.2054,"ARG_OF_PERICENTER":273.4891,"MEAN_ANOMALY":243.8765,"EPHEMERIS_TYPE":0,"CLASSIFICATION_TYPE":"U","NORAD_CAT_ID":67993,"ELEMENT_SET_NO":999,"REV_AT_EPOCH":232,"BSTAR":-0.00363448,"MEAN_MOTION_DOT":-0.01487766,"MEAN_MOTION_DDOT":0.00064603077}]
